{
  "name": "INTELSAT",
  "date": "2020-03-18 20:59:10 CET",
  "tles": [{
    "INTELSAT 26": [
      "1 24732C 97007A   20072.00000000  .00000109  00000-0  00000-0 0   724",
      "2 24732   8.9059  43.5314 0008054 314.4267 235.7471  1.00277021    15"
    ],
    "INTELSAT 26-1": [
      "1 24732C 97007A   20076.00000000  .00000109  00000-0  00000-0 0   762",
      "2 24732   8.9129  43.5232 0007775 316.8129 237.3140  1.00275464    14"
    ],
    "INTELSAT 26         [PM]": [
      "1 24732C 97007A   20077.34027778  .00000108  00000-0  00000-0 0   771",
      "2 24732   8.9128  43.5560 0004638   7.5921 310.3663  1.00266900    13"
    ],
    "GALAXY 25": [
      "1 24812C 97026A   20072.00000000  .00000246  00000-0  00000-0 0   726",
      "2 24812   1.6934  91.2449 0002994 273.9985 197.7353  1.00272924    11"
    ],
    "GALAXY 25-1": [
      "1 24812C 97026A   20076.00000000  .00000246  00000-0  00000-0 0   764",
      "2 24812   1.7069  91.2147 0002807 274.3959 201.3059  1.00270417    15"
    ],
    "GALAXY 25           [PM]": [
      "1 24812C 97026A   20076.55724537  .00000246  00000-0  00000-0 0   762",
      "2 24812   1.7083  91.2211 0002644 271.7062  45.1461  1.00270560    18"
    ],
    "INTELSAT 5": [
      "1 24916C 97046A   20072.00000000  .00000186  00000-0  00000-0 0   726",
      "2 24916   5.5127  66.0792 0001864 324.8415   2.1569  1.00271539    12"
    ],
    "INTELSAT 5-1": [
      "1 24916C 97046A   20076.00000000  .00000186  00000-0  00000-0 0   764",
      "2 24916   5.5238  66.0789 0001841 333.0939 357.8649  1.00268555    12"
    ],
    "INTELSAT 5          [PM]": [
      "1 24916C 97046A   20077.42166667  .00000186  00000-0  00000-0 0   774",
      "2 24916   5.5276  66.0949 0003969 322.8164 161.3241  1.00267610    18"
    ],
    "GALAXY 11": [
      "1 26038C 99071A   20072.00000000 -.00000072  00000-0  00000-0 0   728",
      "2 26038   0.9808  97.9030 0000695 269.7672  69.3144  1.00270017    19"
    ],
    "GALAXY 11-1": [
      "1 26038C 99071A   20076.00000000 -.00000072  00000-0  00000-0 0   766",
      "2 26038   0.9937  97.8221 0000530 277.7330  65.3665  1.00270594    15"
    ],
    "INTELSAT 9          [PM]": [
      "1 26451C 00043A   20064.76532407 -.00000146  00000-0  00000-0 0   646",
      "2 26451   5.4873  66.3358 0003756 290.0042  48.1500  1.00097396    10"
    ],
    "INTELSAT 9": [
      "1 26451C 00043A   20072.00000000 -.00000164  00000-0  00000-0 0   720",
      "2 26451   5.5015  66.2728 0005736 314.3967 110.8589  1.00095616    12"
    ],
    "INTELSAT 9-1": [
      "1 26451C 00043A   20076.00000000 -.00000172  00000-0  00000-0 0   767",
      "2 26451   5.5124  66.2740 0005784 318.8343 107.8130  1.00094666    19"
    ],
    "INTELSAT 12": [
      "1 26590C 00068A   20072.00000000  .00000104  00000-0  00000-0 0   724",
      "2 26590   2.7038  87.0335 0004109 292.2545 215.0364  1.00271467    13"
    ],
    "INTELSAT 12-1": [
      "1 26590C 00068A   20076.00000000  .00000104  00000-0  00000-0 0   762",
      "2 26590   2.7172  87.0108 0004093 290.9971 220.2596  1.00271690    13"
    ],
    "INTELSAT 12         [PM]": [
      "1 26590C 00068A   20080.12534722  .00000104  00000-0  00000-0 0   808",
      "2 26590   2.7247  87.0186 0004087 293.7287 266.7158  1.00271962    17"
    ],
    "INTELSAT 1R": [
      "1 26608C 00072A   20072.00000000 -.00000047  00000-0  00000-0 0   726",
      "2 26608   2.5024  86.6579 0000215 253.5806 346.9303  1.00270602    12"
    ],
    "INTELSAT 1R-1": [
      "1 26608C 00072A   20076.00000000 -.00000047  00000-0  00000-0 0   764",
      "2 26608   2.5169  86.6562 0000133 179.9890  64.4621  1.00271484    11"
    ],
    "INTELSAT 10": [
      "1 26766C 01019A   20072.00000000  .00000217  00000-0  00000-0 0   721",
      "2 26766   3.6711  79.6035 0002614 291.0671 206.9097  1.00269985    10"
    ],
    "INTELSAT 10-1": [
      "1 26766C 01019A   20076.00000000  .00000217  00000-0  00000-0 0   769",
      "2 26766   3.6838  79.5955 0002578 298.8392 203.0846  1.00272473    10"
    ],
    "INTELSAT 10         [PM]": [
      "1 26766C 01019A   20079.11101852  .00000217  00000-0  00000-0 0   794",
      "2 26766   3.6894  79.5967 0002516 285.7167 259.2544  1.00269667    11"
    ],
    "INTELSAT 901": [
      "1 26824C 01024A   20058.00000000 -.00000255  00000-0  00000-0 0   583",
      "2 26824   1.6423  91.3343 0002042 337.4981 213.9513  0.99202588    14"
    ],
    "INTELSAT 901-1": [
      "1 26824C 01024A   20062.00000000 -.00000249  00000-0  00000-0 0   626",
      "2 26824   1.6536  91.2327 0002266 333.6040 206.4500  0.99200428    16"
    ],
    "INTELSAT 902": [
      "1 26900C 01039A   20072.00000000 -.00000123  00000-0  00000-0 0   720",
      "2 26900   0.3871  97.7708 0006157 274.4538 128.5543  1.00061816    10"
    ],
    "INTELSAT 902-1": [
      "1 26900C 01039A   20076.00000000 -.00000139  00000-0  00000-0 0   765",
      "2 26900   0.4006  97.6631 0006136 279.3316 124.6961  1.00061532    16"
    ],
    "INTELSAT 904": [
      "1 27380C 02007A   20072.00000000 -.00000123  00000-0  00000-0 0   729",
      "2 27380   1.2269  94.2534 0002887 272.0960 134.2319  1.00271638    12"
    ],
    "INTELSAT 904-1": [
      "1 27380C 02007A   20076.00000000 -.00000123  00000-0  00000-0 0   767",
      "2 27380   1.2406  94.2233 0002835 280.5419 129.7558  1.00272714    17"
    ],
    "INTELSAT 904        [PM]": [
      "1 27380C 02007A   20082.34393519 -.00000123  00000-0  00000-0 0   828",
      "2 27380   1.2569  83.0545 0002579 269.5080 282.0475  1.00271577    12"
    ],
    "INTELSAT 903": [
      "1 27403C 02016A   20072.00000000 -.00000134  00000-0  00000-0 0   727",
      "2 27403   2.0573  89.4839 0002090 308.8692 100.2326  1.00271816    14"
    ],
    "INTELSAT 903-1": [
      "1 27403C 02016A   20076.00000000 -.00000134  00000-0  00000-0 0   765",
      "2 27403   2.0705  89.4665 0002342 320.4002  92.6549  1.00271466    15"
    ],
    "INTELSAT 903        [PM]": [
      "1 27403C 02016A   20077.85641204 -.00000134  00000-0  00000-0 0   777",
      "2 27403   2.0749  89.4852 0002163 323.2849  39.8846  1.00272838    19"
    ],
    "INTELSAT 905        [PM]": [
      "1 27438C 02027A   20070.59196759 -.00000094  00000-0  00000-0 0   709",
      "2 27438   1.0429  95.3365 0002894 252.9075   9.0615  1.00271231    15"
    ],
    "INTELSAT 905": [
      "1 27438C 02027A   20072.00000000 -.00000094  00000-0  00000-0 0   722",
      "2 27438   1.0471  95.2153 0002762 260.3904 149.9759  1.00271954    19"
    ],
    "INTELSAT 905-1": [
      "1 27438C 02027A   20076.00000000 -.00000094  00000-0  00000-0 0   760",
      "2 27438   1.0607  95.1749 0002649 270.9736 143.3737  1.00271905    14"
    ],
    "GALAXY 3C": [
      "1 27445C 02030A   20072.00000000 -.00000064  00000-0  00000-0 0   721",
      "2 27445   0.0312 283.8290 0001983  49.4379 101.7527  1.00268412    17"
    ],
    "GALAXY 3C-1": [
      "1 27445C 02030A   20076.00000000 -.00000062  00000-0  00000-0 0   767",
      "2 27445   0.0302 309.6503 0001973  29.5595  99.7495  1.00268317    12"
    ],
    "INTELSAT 906": [
      "1 27513C 02041A   20072.00000000  .00000105  00000-0  00000-0 0   724",
      "2 27513   0.0534 117.2174 0002323 248.8694 228.1347  1.00272541    16"
    ],
    "INTELSAT 906-1": [
      "1 27513C 02041A   20076.00000000  .00000105  00000-0  00000-0 0   762",
      "2 27513   0.0662 111.3093 0002269 266.7763 220.0960  1.00274079    18"
    ],
    "INTELSAT 906        [PM]": [
      "1 27513C 02041A   20078.59483796  .00000105  00000-0  00000-0 0   787",
      "2 27513   0.0766  99.4308 0002059 255.1403 100.3037  1.00270716    17"
    ],
    "INTELSAT 907": [
      "1 27683C 03007A   20072.00000000 -.00000112  00000-0  00000-0 0   724",
      "2 27683   0.0180 120.1237 0002696 245.8285 136.6336  1.00272275    15"
    ],
    "INTELSAT 907-1": [
      "1 27683C 03007A   20076.00000000 -.00000112  00000-0  00000-0 0   762",
      "2 27683   0.0259  94.4902 0002660 282.3061 129.7345  1.00272003    15"
    ],
    "INTELSAT 907        [PM]": [
      "1 27683C 03007A   20076.42013889 -.00000112  00000-0  00000-0 0   767",
      "2 27683   0.0272  95.5458 0002658 282.1149 280.5339  1.00271851    19"
    ],
    "GALAXY 12": [
      "1 27715C 03013B   20072.00000000  .00000149  00000-0  00000-0 0   726",
      "2 27715   1.2632  93.4076 0002072 273.9378  33.7277  1.00270814    10"
    ],
    "GALAXY 12-1": [
      "1 27715C 03013B   20076.00000000  .00000149  00000-0  00000-0 0   764",
      "2 27715   1.2768  93.3707 0002017 285.8369  25.8104  1.00272943    17"
    ],
    "GALAXY 12           [PM]": [
      "1 27715C 03013B   20077.61082176  .00000149  00000-0  00000-0 0   777",
      "2 27715   1.2805  93.4194 0002072 284.7836 248.3069  1.00270549    10"
    ],
    "GALAXY 23": [
      "1 27854C 03034A   20072.00000000  .00000054  00000-0  00000-0 0   728",
      "2 27854   0.0305 249.7312 0003165 113.1983  46.1465  1.00271294    18"
    ],
    "GALAXY 23-1": [
      "1 27854C 03034A   20076.00000000  .00000103  00000-0  00000-0 0   761",
      "2 27854   0.0411 267.5329 0003037 102.1903  43.2905  1.00271190    12"
    ],
    "GALAXY 23           [PM]": [
      "1 27854C 03034A   20082.58406250  .00000103  00000-0  00000-0 0   825",
      "2 27854   0.0189 216.7417 0002874 140.7035 272.3415  1.00271182    12"
    ],
    "GALAXY 13": [
      "1 27954C 03044A   20072.00000000 -.00000011  00000-0  00000-0 0   724",
      "2 27954   0.0000 172.1422 0000952  51.7840 179.1366  1.00269760    14"
    ],
    "GALAXY 13-1": [
      "1 27954C 03044A   20076.00000000  .00000139  00000-0  00000-0 0   762",
      "2 27954   0.0018 148.2587 0000549 205.3462  53.4027  1.00271530    14"
    ],
    "GALAXY 13           [PM]": [
      "1 27954C 03044A   20076.86481482  .00000142  00000-0  00000-0 0   767",
      "2 27954   0.0030 139.4295 0001058 223.7392 356.0262  1.00271644    17"
    ],
    "INTELSAT 10-02": [
      "1 28358C 04022A   20072.00000000  .00000084  00000-0  00000-0 0   729",
      "2 28358   0.0051 207.7717 0003127 175.6670 145.6392  1.00270757    10"
    ],
    "INTELSAT 10-02-1": [
      "1 28358C 04022A   20076.00000000  .00000080  00000-0  00000-0 0   763",
      "2 28358   0.0034 147.1344 0003200 245.0935 140.7840  1.00272121    13"
    ],
    "INTELSAT 10-02      [PM]": [
      "1 28358C 04022A   20079.78819444  .00000081  00000-0  00000-0 0   795",
      "2 28358   0.0033 183.1996 0003183 214.6103  62.7003  1.00272208    14"
    ],
    "GALAXY 28": [
      "1 28702C 05022A   20072.00000000 -.00000095  00000-0  00000-0 0   726",
      "2 28702   0.0147 119.7286 0002657 244.6474  76.6940  1.00269428    13"
    ],
    "GALAXY 28-1": [
      "1 28702C 05022A   20076.00000000 -.00000095  00000-0  00000-0 0   764",
      "2 28702   0.0185 108.1959 0002532 258.1116  78.7159  1.00270231    18"
    ],
    "GALAXY 28           [PM]": [
      "1 28702C 05022A   20076.51589120 -.00000095  00000-0  00000-0 0   765",
      "2 28702   0.0204 107.4362 0002521 261.1758 262.6387  1.00270707    19"
    ],
    "GALAXY 14": [
      "1 28790C 05030A   20072.00000000  .00000124  00000-0  00000-0 0   724",
      "2 28790   0.0494 330.6454 0002481  31.8400  42.5949  1.00272107    15"
    ],
    "GALAXY 14-1": [
      "1 28790C 05030A   20076.00000000  .00000126  00000-0  00000-0 0   764",
      "2 28790   0.0381 333.3829 0002431  32.7904  42.8498  1.00270255    14"
    ],
    "GALAXY 14           [PM]": [
      "1 28790C 05030A   20076.84506944  .00000260  00000-0  00000-0 0   763",
      "2 28790   0.0244 295.2523 0002349  73.2005 345.6245  1.00271500    17"
    ],
    "GALAXY 15": [
      "1 28884C 05041A   20072.00000000  .00000171  00000-0  00000-0 0   722",
      "2 28884   0.0373 266.7114 0001904  94.5236  35.8462  1.00269995    15"
    ],
    "GALAXY 15-1": [
      "1 28884C 05041A   20076.00000000  .00000168  00000-0  00000-0 0   766",
      "2 28884   0.0197 250.0432 0001794 123.2110  27.7606  1.00272333    16"
    ],
    "GALAXY 15           [PM]": [
      "1 28884C 05041A   20078.62704861  .00000170  00000-0  00000-0 0   787",
      "2 28884   0.0095 213.0332 0001730 160.1930 256.1269  1.00270632    14"
    ],
    "GALAXY 16": [
      "1 29236C 06023A   20072.00000000 -.00000034  00000-0  00000-0 0   724",
      "2 29236   0.0072 144.9483 0002777 210.1540  75.9866  1.00270222    10"
    ],
    "GALAXY 16-1": [
      "1 29236C 06023A   20076.00000000 -.00000037  00000-0  00000-0 0   765",
      "2 29236   0.0134 237.0822 0002625 126.7971  71.1391  1.00271869    11"
    ],
    "GALAXY 16           [PM]": [
      "1 29236C 06023A   20077.52361111 -.00000034  00000-0  00000-0 0   774",
      "2 29236   0.0061 206.6569 0002620 157.9326 260.4409  1.00271832    18"
    ],
    "GALAXY 16           [PM]-1": [
      "1 29236C 06023A   20078.54861111 -.00000036  00000-0  00000-0 0   785",
      "2 29236   0.0048 195.1657 0002598 171.4745 268.4004  1.00271677    19"
    ],
    "GALAXY 17": [
      "1 31307C 07016B   20072.00000000 -.00000084  00000-0  00000-0 0   724",
      "2 31307   0.0164  96.6506 0003223 265.0664  77.3625  1.00272299    11"
    ],
    "GALAXY 17-1": [
      "1 31307C 07016B   20076.00000000 -.00000085  00000-0  00000-0 0   763",
      "2 31307   0.0312  83.9903 0003143 287.2510  71.7896  1.00272463    14"
    ],
    "GALAXY 17           [PM]": [
      "1 31307C 07016B   20078.03762732 -.00000086  00000-0  00000-0 0   788",
      "2 31307   0.0024 234.6474 0003125 139.5651  84.3488  1.00272918    19"
    ],
    "INTELSAT 11": [
      "1 32253C 07044B   20072.00000000 -.00000124  00000-0  00000-0 0   721",
      "2 32253   0.0000 172.6670 0001835 212.3302 102.0914  1.00272500    11"
    ],
    "INTELSAT 11-1": [
      "1 32253C 07044B   20076.00000000 -.00000178  00000-0  00000-0 0   768",
      "2 32253   0.0143 243.0741 0001961 156.3800  91.5820  1.00271585    11"
    ],
    "INTELSAT 11         [PM]": [
      "1 32253C 07044B   20078.85972222 -.00000178  00000-0  00000-0 0   789",
      "2 32253   0.0074 140.9968 0001910 262.1851  40.1697  1.00272873    19"
    ],
    "HORIZONS 2": [
      "1 32388C 07063B   20072.00000000 -.00000093  00000-0  00000-0 0   726",
      "2 32388   0.0042 136.3146 0002905 221.6749 256.9301  1.00272972    10"
    ],
    "HORIZONS 2-1": [
      "1 32388C 07063B   20076.00000000 -.00000092  00000-0  00000-0 0   763",
      "2 32388   0.0161 257.7393 0002904 110.5995 250.5285  1.00271296    11"
    ],
    "HORIZONS 2          [PM]": [
      "1 32388C 07063B   20078.54174769 -.00000092  00000-0  00000-0 0   780",
      "2 32388   0.0013 201.5834 0002887 167.2211  87.5898  1.00272744    11"
    ],
    "GALAXY 18": [
      "1 32951C 08024A   20072.00000000  .00000110  00000-0  00000-0 0   729",
      "2 32951   0.0055 140.6905 0003198 227.7216  38.6629  1.00271654    16"
    ],
    "GALAXY 18-1": [
      "1 32951C 08024A   20076.00000000  .00000115  00000-0  00000-0 0   762",
      "2 32951   0.0136 244.0311 0003088 137.5125  29.4785  1.00270754    12"
    ],
    "GALAXY 18           [PM]": [
      "1 32951C 08024A   20078.62707176  .00000112  00000-0  00000-0 0   789",
      "2 32951   0.0001 163.2108 0002819 189.6943 286.4487  1.00271162    14"
    ],
    "INTELSAT 25": [
      "1 33153C 08034A   20072.00000000 -.00000134  00000-0  00000-0 0   722",
      "2 33153   0.0106 172.3750 0002449 149.8139 176.3802  1.00275470    17"
    ],
    "INTELSAT 25-1": [
      "1 33153C 08034A   20076.00000000 -.00000134  00000-0  00000-0 0   760",
      "2 33153   0.0225 232.3284 0002038  93.6163 176.5720  1.00273278    10"
    ],
    "INTELSAT 25         [PM]": [
      "1 33153C 08034A   20078.43071759 -.00000132  00000-0  00000-0 0   788",
      "2 33153   0.0138 195.5859 0002234 116.7338 347.6653  1.00272425    19"
    ],
    "GALAXY 19": [
      "1 33376C 08045A   20072.00000000 -.00000062  00000-0  00000-0 0   721",
      "2 33376   0.0050 210.1742 0003025 154.6648  68.2402  1.00271163    14"
    ],
    "GALAXY 19           [PM]": [
      "1 33376C 08045A   20072.74305556 -.00000090  00000-0  00000-0 0   727",
      "2 33376   0.0015 203.0346 0003008 164.3787 333.8981  1.00271459    10"
    ],
    "GALAXY 19-1": [
      "1 33376C 08045A   20076.00000000 -.00000058  00000-0  00000-0 0   764",
      "2 33376   0.0031 144.1742 0002973 230.1536  62.6906  1.00271687    14"
    ],
    "INTELSAT 14": [
      "1 36097C 09064A   20072.00000000 -.00000183  00000-0  00000-0 0   720",
      "2 36097   0.0090 142.7580 0002610 223.8404 118.4828  1.00272773    17"
    ],
    "INTELSAT 14-1": [
      "1 36097C 09064A   20076.00000000 -.00000183  00000-0  00000-0 0   768",
      "2 36097   0.0243 115.3643 0002562 261.3238 112.3419  1.00272024    19"
    ],
    "INTELSAT 14         [PM]": [
      "1 36097C 09064A   20078.90210648 -.00000183  00000-0  00000-0 0   782",
      "2 36097   0.0063 196.3792 0002412 181.6435  78.5986  1.00273838    16"
    ],
    "INTELSAT 15": [
      "1 36106C 09067A   20072.00000000 -.00000093  00000-0  00000-0 0   724",
      "2 36106   0.0105 234.2803 0002511 139.2285 241.7326  1.00271384    17"
    ],
    "INTELSAT 15-1": [
      "1 36106C 09067A   20076.00000000 -.00000084  00000-0  00000-0 0   762",
      "2 36106   0.0001 144.8610 0002485 238.2252 236.0875  1.00271350    17"
    ],
    "INTELSAT 15         [PM]": [
      "1 36106C 09067A   20079.01918982 -.00000095  00000-0  00000-0 0   798",
      "2 36106   0.0110 113.5988 0002159 243.0960 272.3706  1.00272133    13"
    ],
    "INTELSAT 16": [
      "1 36397C 10006A   20072.00000000 -.00000155  00000-0  00000-0 0   720",
      "2 36397   0.0067 219.3061 0002076 147.9369  86.6288  1.00269998    12"
    ],
    "INTELSAT 16-1": [
      "1 36397C 10006A   20076.00000000 -.00000157  00000-0  00000-0 0   760",
      "2 36397   0.0006 147.9738 0002005 226.1416  83.7001  1.00271735    10"
    ],
    "INTELSAT 16         [PM]": [
      "1 36397C 10006A   20078.00724537 -.00000154  00000-0  00000-0 0   789",
      "2 36397   0.0068 132.8801 0001962 241.0356  88.4849  1.00273238    14"
    ],
    "INTELSAT 17": [
      "1 37238C 10065B   20072.00000000  .00000089  00000-0  00000-0 0   725",
      "2 37238   0.0115 187.1566 0002647 171.1500 237.7578  1.00271563    15"
    ],
    "INTELSAT 17-1": [
      "1 37238C 10065B   20076.00000000  .00000089  00000-0  00000-0 0   763",
      "2 37238   0.0149 151.8682 0002514 215.9090 232.2325  1.00272971    17"
    ],
    "INTELSAT 17         [PM]": [
      "1 37238C 10065B   20078.62062500  .00000089  00000-0  00000-0 0   788",
      "2 37238   0.0223 222.5640 0002417 151.5162  91.9257  1.00272113    19"
    ],
    "INTELSAT NEW DAWN": [
      "1 37392C 11016A   20072.00000000  .00000246  00000-0  00000-0 0   728",
      "2 37392   0.0151 172.2055 0000934 205.0755 185.6102  1.00271825    15"
    ],
    "INTELSAT NEW DAWN-1": [
      "1 37392C 11016A   20076.00000000  .00000215  00000-0  00000-0 0   762",
      "2 37392   0.0223 144.5823 0000664 199.1054 223.1330  1.00264085    16"
    ],
    "INTELSAT NEW DAWN   [PM]": [
      "1 37392C 11016A   20077.68113426  .00000246  00000-0  00000-0 0   779",
      "2 37392   0.0200 207.3711 0000882 109.8438 136.4540  1.00272138    18"
    ],
    "INTELSAT NEW DAWN   [PM]-1": [
      "1 37392C 11016A   20083.75920139  .00000246  00000-0  00000-0 0   838",
      "2 37392   0.0164 187.9270 0000466 103.4476 196.4443  1.00270906    19"
    ],
    "INTELSAT 18": [
      "1 37834C 11056A   20072.00000000  .00000143  00000-0  00000-0 0   729",
      "2 37834   0.0201 248.1517 0003138 133.4730 328.4570  1.00274590    12"
    ],
    "INTELSAT 18-1": [
      "1 37834C 11056A   20076.00000000  .00000064  00000-0  00000-0 0   769",
      "2 37834   0.0000 190.9170 0002813 194.8118 328.2785  1.00271330    13"
    ],
    "INTELSAT 18         [PM]": [
      "1 37834C 11056A   20076.66864583  .00000143  00000-0  00000-0 0   763",
      "2 37834   0.0000 176.9483 0002862 210.1405 208.2889  1.00271771    10"
    ],
    "INTELSAT 22": [
      "1 38098C 12011A   20072.00000000  .00000032  00000-0  00000-0 0   721",
      "2 38098   0.0450 278.8518 0002915  80.1965 243.1292  1.00271033    15"
    ],
    "INTELSAT 22-1": [
      "1 38098C 12011A   20076.00000000 -.00000012  00000-0  00000-0 0   768",
      "2 38098   0.0294 276.2246 0002788  90.1766 239.7170  1.00272286    16"
    ],
    "INTELSAT 22         [PM]": [
      "1 38098C 12011A   20078.04079861  .00000032  00000-0  00000-0 0   788",
      "2 38098   0.0208 252.6286 0002751 115.7791 254.4136  1.00271743    18"
    ],
    "INTELSAT 19": [
      "1 38356C 12030A   20072.00000000  .00000033  00000-0  00000-0 0   720",
      "2 38356   0.0153 237.9446 0002774 123.4622 334.6602  1.00271916    13"
    ],
    "INTELSAT 19-1": [
      "1 38356C 12030A   20076.00000000  .00000038  00000-0  00000-0 0   763",
      "2 38356   0.0000 170.9062 0002678 199.5074 329.6045  1.00273149    17"
    ],
    "INTELSAT 19         [PM]": [
      "1 38356C 12030A   20078.91091435  .00000043  00000-0  00000-0 0   785",
      "2 38356   0.0050 144.6682 0002698 227.0087 299.1582  1.00270744    16"
    ],
    "INTELSAT 20         [PM]": [
      "1 38740C 12043A   20071.75000000  .00000066  00000-0  00000-0 0   717",
      "2 38740   0.0116 158.2335 0002163  14.6041 335.4966  1.00270705    16"
    ],
    "INTELSAT 20": [
      "1 38740C 12043A   20072.00000000  .00000067  00000-0  00000-0 0   728",
      "2 38740   0.0123 156.2641 0002193  14.5734  67.7425  1.00270943    12"
    ],
    "INTELSAT 20-1": [
      "1 38740C 12043A   20076.00000000  .00000066  00000-0  00000-0 0   765",
      "2 38740   0.0149 145.5805 0002270  24.0312  72.9043  1.00271058    19"
    ],
    "INTELSAT 20         [PM]-1": [
      "1 38740C 12043A   20079.20000000  .00000066  00000-0  00000-0 0   793",
      "2 38740   0.0168 146.7080 0002203  23.5331 147.4318  1.00272184    13"
    ],
    "INTELSAT 21": [
      "1 38749C 12045A   20072.00000000 -.00000256  00000-0  00000-0 0   720",
      "2 38749   0.0035 156.2003 0002608 270.7317  45.1574  1.00272337    13"
    ],
    "INTELSAT 21-1": [
      "1 38749C 12045A   20076.00000000 -.00000195  00000-0  00000-0 0   760",
      "2 38749   0.0184 118.9897 0002916 313.5722  43.4702  1.00271510    18"
    ],
    "INTELSAT 21         [PM]": [
      "1 38749C 12045A   20078.44650463 -.00000195  00000-0  00000-0 0   786",
      "2 38749   0.0156 232.2249 0003071 205.6421 201.3112  1.00271500    17"
    ],
    "INTELSAT 23": [
      "1 38867C 12057A   20072.00000000 -.00000216  00000-0  00000-0 0   720",
      "2 38867   0.0097 218.6699 0001764 140.7748 117.6246  1.00270104    13"
    ],
    "INTELSAT 23-1": [
      "1 38867C 12057A   20076.00000000 -.00000250  00000-0  00000-0 0   766",
      "2 38867   0.0023 158.7467 0001795 202.2496 120.0189  1.00274215    18"
    ],
    "INTELSAT 23         [PM]": [
      "1 38867C 12057A   20076.47553241 -.00000233  00000-0  00000-0 0   768",
      "2 38867   0.0035 153.2278 0001757 208.7703 290.6817  1.00274150    11"
    ],
    "INTELSAT 30": [
      "1 40271C 14062A   20072.00000000 -.00000082  00000-0  00000-0 0   721",
      "2 40271   0.0001 156.4916 0002012 314.7746 323.7516  1.00270401    19"
    ],
    "INTELSAT 30-1": [
      "1 40271C 14062A   20076.00000000 -.00000074  00000-0  00000-0 0   760",
      "2 40271   0.0010 145.8178 0002093 331.2559 321.8892  1.00270764    14"
    ],
    "INTELSAT 30         [PM]": [
      "1 40271C 14062A   20078.12291667 -.00000130  00000-0  00000-0 0   781",
      "2 40271   0.0008 152.0580 0002200 327.4211   5.8184  1.00273239    13"
    ],
    "INTELSAT 34": [
      "1 40874C 15039A   20072.00000000 -.00000140  00000-0  00000-0 0   720",
      "2 40874   0.0000 171.7028 0000210 344.8802 318.0067  1.00269207    16"
    ],
    "INTELSAT 34         [PM]": [
      "1 40874C 15039A   20072.02327546 -.00000174  00000-0  00000-0 0   726",
      "2 40874   0.0001 150.7599 0000097 339.3807 352.8468  1.00272466    16"
    ],
    "INTELSAT 34-1": [
      "1 40874C 15039A   20076.00000000 -.00000203  00000-0  00000-0 0   768",
      "2 40874   0.0027 139.9106 0000218   3.1258 335.4910  1.00270708    14"
    ],
    "INTELSAT 31": [
      "1 41581C 16035A   20072.00000000 -.00000061  00000-0  00000-0 0   725",
      "2 41581   0.0157 213.5477 0002534 344.1960 237.2855  1.00269897    19"
    ],
    "INTELSAT 31         [PM]": [
      "1 41581C 16035A   20072.12254630 -.00000061  00000-0  00000-0 0   728",
      "2 41581   0.0159 215.3575 0002613 339.8861 284.0185  1.00272268    11"
    ],
    "INTELSAT 31-1": [
      "1 41581C 16035A   20076.00000000 -.00000061  00000-0  00000-0 0   763",
      "2 41581   0.0119 205.3686 0002665 349.3198 244.2801  1.00270869    13"
    ],
    "INTELSAT 36": [
      "1 41747C 16053A   20072.00000000  .00000067  00000-0  00000-0 0   724",
      "2 41747   0.0001 114.1316 0001112 267.3372 217.1098  1.00270627    12"
    ],
    "INTELSAT 36         [PM]": [
      "1 41747C 16053A   20072.26111111  .00000060  00000-0  00000-0 0   721",
      "2 41747   0.0366   9.0002 0001173 355.8720 327.9604  1.00271706    19"
    ],
    "INTELSAT 36-1": [
      "1 41747C 16053A   20076.00000000  .00000066  00000-0  00000-0 0   761",
      "2 41747   0.0164  65.4580 0001021 323.3602 213.6980  1.00271391    11"
    ],
    "INTELSAT 33E": [
      "1 41748C 16053B   20072.00000000  .00000067  00000-0  00000-0 0   725",
      "2 41748   0.0141  54.5261 0001950 321.0600 214.4755  1.00271688    14"
    ],
    "INTELSAT 33E-1": [
      "1 41748C 16053B   20076.00000000  .00000062  00000-0  00000-0 0   768",
      "2 41748   0.0146  44.9086 0001834 342.8194 206.2876  1.00273859    12"
    ],
    "INTELSAT 33E        [PM]": [
      "1 41748C 16053B   20078.12966435  .00000158  00000-0  00000-0 0   784",
      "2 41748   0.0400   4.9107 0001784  19.0130 258.8750  1.00270443    12"
    ]  }, {
    "INTELSAT 32E": [
      "1 41945C 17007B   20072.00000000 -.00000208  00000-0  00000-0 0   722",
      "2 41945   0.0029 147.2764 0000292 279.5168  60.1017  1.00269871    18"
    ],
    "INTELSAT 32E-1": [
      "1 41945C 17007B   20076.00000000 -.00000190  00000-0  00000-0 0   760",
      "2 41945   0.0375 351.8599 0000213 121.4818  17.5075  1.00270713    18"
    ],
    "INTELSAT 32E        [PM]": [
      "1 41945C 17007B   20078.95466435 -.00000180  00000-0  00000-0 0   785",
      "2 41945   0.0042 146.6872 0000298 289.0858  41.6500  1.00274349    11"
    ],
    "INTELSAT 35E": [
      "1 42818C 17041A   20072.00000000 -.00000149  00000-0  00000-0 0   724",
      "2 42818   0.0215 193.6377 0002317 176.4933 125.4446  1.00271747    11"
    ],
    "INTELSAT 35E-1": [
      "1 42818C 17041A   20076.00000000 -.00000147  00000-0  00000-0 0   760",
      "2 42818   0.0223 200.5480 0002276 177.7026 121.2626  1.00271615    12"
    ],
    "INTELSAT 35E        [PM]": [
      "1 42818C 17041A   20077.76299769 -.00000148  00000-0  00000-0 0   778",
      "2 42818   0.0224 191.2928 0002132 186.2460  38.3890  1.00273696    16"
    ],
    "INTELSAT 37E": [
      "1 42950C 17059A   20072.00000000 -.00000040  00000-0  00000-0 0   720",
      "2 42950   0.0002 186.6308 0001935 184.8648 140.5744  1.00270745    15"
    ],
    "INTELSAT 37E-1": [
      "1 42950C 17059A   20076.00000000 -.00000055  00000-0  00000-0 0   764",
      "2 42950   0.0089 129.1310 0001878 253.6797 133.1864  1.00271103    11"
    ],
    "INTELSAT 37E        [PM]": [
      "1 42950C 17059A   20078.91597222 -.00000051  00000-0  00000-0 0   781",
      "2 42950   0.0018 168.2304 0001830 216.7179 103.6664  1.00272956    19"
    ],
    "AZERSPACE 2": [
      "1 43632C 18074A   20072.00000000  .00000227  00000-0  00000-0 0   722",
      "2 43632   0.0080 134.1899 0001387 240.5333 200.4676  1.00272593    17"
    ],
    "AZERSPACE 2-1": [
      "1 43632C 18074A   20076.00000000  .00000228  00000-0  00000-0 0   761",
      "2 43632   0.0024 144.4249 0001430 228.8295 205.8782  1.00270978    15"
    ],
    "HORIZONS 3E": [
      "1 43633C 18074B   20072.00000000 -.00000015  00000-0  00000-0 0   729",
      "2 43633   0.0177 293.4166 0000624 121.3256 284.3372  1.00269865    16"
    ],
    "HORIZONS 3E-1": [
      "1 43633C 18074B   20076.00000000  .00000083  00000-0  00000-0 0   761",
      "2 43633   0.0056  44.8426 0000541   8.2449 289.9265  1.00269245    18"
    ],
    "INTELSAT 39": [
      "1 44476C 19049B   20072.00000000  .00000120  00000-0  00000-0 0   724",
      "2 44476   0.0036 208.5048 0000738 210.2327 173.2793  1.00269803    10"
    ],
    "INTELSAT 39-1": [
      "1 44476C 19049B   20076.00000000  .00000091  00000-0  00000-0 0   769",
      "2 44476   0.0014 205.0989 0000663 229.0824 161.7682  1.00270511    16"
    ],
    "INTELSAT 39         [PM]": [
      "1 44476C 19049B   20077.54692130  .00000124  00000-0  00000-0 0   778",
      "2 44476   0.0000 166.6221 0000617 249.3584  18.3792  1.00273420    10"
    ]
  }]
}
